NORAD_CAT_ID,OBJECT_NAME,OBJECT_TYPE,EPOCH,MEAN_MOTION,ECCENTRICITY,INCLINATION,RA_OF_ASC_NODE,ARG_OF_PERICENTER,MEAN_ANOMALY,BSTAR,MEAN_MOTION_DOT,MEAN_MOTION_DDOT,TLE_LINE0,TLE_LINE1,TLE_LINE2,SEMIMAJOR_AXIS,PERIOD,APOGEE,PERIGEE,DECAYED
54094.0,STARLINK-5219,PAYLOAD,2022-10-25 18:00:00,15.90190611,0.0030761,53.2173,122.8396,56.0746,291.9868,-0.0041499,-0.01338749,0.00051099,0 STARLINK-5219,1 54094U 22136AV  22298.75001157 -.01338749  51099-3 -41499-2 0  9998,2 54094  53.2173 122.8396 0030761  56.0746 291.9868 15.90190611  1301,6679.886,90.555,322.2990000000001,281.203,0.0
54094.0,STARLINK-5219,PAYLOAD,2022-10-25 22:00:01,15.89760482,0.0029465999999999,53.2175,121.9952,57.0463,165.6178,-0.0042958999999999,-0.0135042,0.00051704,0 STARLINK-5219,1 54094U 22136AV  22298.91668981 -.01350420  51704-3 -42959-2 0  9995,2 54094  53.2175 121.9952 0029466  57.0463 165.6178 15.89760482  1306,6681.090999999999,90.58,322.642,283.269,0.0
54094.0,STARLINK-5219,PAYLOAD,2022-10-26 06:00:00,15.88890269,0.0026173,53.2175,120.3042,56.7177,274.17400000000004,-0.0045066,-0.01343927,0.00050835,0 STARLINK-5219,1 54094U 22136AV  22299.25001157 -.01343927  50835-3 -45066-2 0  9999,2 54094  53.2175 120.3042 0026173  56.7177 274.1740 15.88890269  1373,6683.53,90.629,322.888,287.902,0.0
54094.0,STARLINK-5219,PAYLOAD,2022-10-26 14:00:01,15.87984709,0.0022623,53.2175,118.6167,56.0831,22.0721,-0.0044872,-0.01269471,0.00045439,0 STARLINK-5219,1 54094U 22136AV  22299.58334491 -.01269471  45439-3 -44872-2 0  9994,2 54094  53.2175 118.6167 0022623  56.0831  22.0721 15.87984709  1435,6686.071,90.681,323.062,292.81,0.0
54094.0,STARLINK-5219,PAYLOAD,2022-10-26 22:00:00,15.87153502,0.0019195999999999,53.2176,116.9336,54.2374,130.1089,-0.0049721,-0.01340467,0.00049793,0 STARLINK-5219,1 54094U 22136AV  22299.91667824 -.01340467  49793-3 -49721-2 0  9990,2 54094  53.2176 116.9336 0019196  54.2374 130.1089 15.87153502  1480,6688.405,90.728,323.1090000000001,297.431,0.0
54094.0,STARLINK-5219,PAYLOAD,2022-10-27 14:00:01,15.85376675,0.0012665999999999,53.2171,113.5682,53.105,340.6106,-0.0051805,-0.01126159,0.0,0 STARLINK-5219,1 54094U 22136AV  22300.58335648 -.01126159  00000-0 -51805-2 0  9993,2 54094  53.2171 113.5682 0012666  53.1050 340.6106 15.85376675  1301,6693.401,90.83,323.744,306.788,0.0
54094.0,STARLINK-5219,PAYLOAD,2022-10-27 22:00:00,15.84526636,0.0009257,53.2175,111.8919,48.5,88.2153,-0.0055228,-0.01143962,0.0,0 STARLINK-5219,1 54094U 22136AV  22300.91667824 -.01143962  00000-0 -55228-2 0  9998,2 54094  53.2175 111.8919 0009257  48.5000  88.2153 15.84526636  1304,6695.795,90.879,323.858,311.462,0.0
54094.0,STARLINK-5219,PAYLOAD,2022-10-28 08:00:01,15.83464944,0.0005256,53.2174,109.7942,32.8113,321.3428,-0.0060358999999999,-0.01200561,0.0,0 STARLINK-5219,1 54094U 22136AV  22301.33335648 -.01200561  00000-0 -60359-2 0  9991,2 54094  53.2174 109.7942 0005256  32.8113 321.3428 15.83464944  1714,6698.788000000001,90.94,324.173,317.132,0.0
54094.0,STARLINK-5219,PAYLOAD,2022-10-28 14:00:01,15.82853027,0.0003608,53.2175,108.5394,11.7225,328.0593,-0.0065319,-0.01253407,0.0,0 STARLINK-5219,1 54094U 22136AV  22301.58335648 -.01253407  00000-0 -65319-2 0  9996,2 54094  53.2175 108.5394 0003608  11.7225 328.0593 15.82853027  1307,6700.514,90.975,324.796,319.961,0.0
54094.0,STARLINK-5219,PAYLOAD,2022-10-28 22:00:01,15.81914804,0.0003109,53.2174,106.8693,329.3082,110.4498,-0.006197,-0.01149291,0.0,0 STARLINK-5219,1 54094U 22136AV  22301.91668981 -.01149291  00000-0 -61970-2 0  9996,2 54094  53.2174 106.8693 0003109 329.3082 110.4498 15.81914804  1806,6703.163000000001,91.029,327.112,322.944,0.0
54094.0,STARLINK-5219,PAYLOAD,2022-10-29 12:00:00,15.8040452,0.0006159,53.2172,103.946,275.0834,247.0074,-0.0067528,-0.01167417,0.0,0 STARLINK-5219,1 54094U 22136AV  22302.50001157 -.01167417  00000-0 -67528-2 0  9993,2 54094  53.2172 103.9460 0006159 275.0834 247.0074 15.80404520  1304,6707.433000000001,91.116,333.4290000000001,325.1670000000001,0.0
54094.0,STARLINK-5219,PAYLOAD,2022-10-29 22:00:01,15.79339077,0.0005595,53.2174,101.8654,270.7183,102.614,-0.0072575,-0.01190996,0.0,0 STARLINK-5219,1 54094U 22136AV  22302.91668981 -.01190996  00000-0 -72575-2 0  9998,2 54094  53.2174 101.8654 0005595 270.7183 102.6140 15.79339077  1302,6710.449000000001,91.177,336.069,328.56,0.0
54094.0,STARLINK-5219,PAYLOAD,2022-10-30 00:00:00,15.79142362,0.0004644999999999,53.2173,101.4488,271.9117,215.3904,-0.0075698,-0.01225761,0.0,0 STARLINK-5219,1 54094U 22136AV  22303.00001157 -.01225761  00000-0 -75698-2 0  9993,2 54094  53.2173 101.4488 0004645 271.9117 215.3904 15.79142362  1979,6711.005999999999,91.189,335.9890000000001,329.754,0.0
54094.0,STARLINK-5219,PAYLOAD,2022-10-30 14:00:01,15.77564332,0.000348,53.2175,98.5394,281.8154,281.9776,-0.0074771,-0.0113651,0.0,0 STARLINK-5219,1 54094U 22136AV  22303.58334491 -.01136510  00000-0 -74771-2 0  9990,2 54094  53.2175  98.5394 0003480 281.8154 281.9776 15.77564332  1306,6715.481,91.28,339.68300000000005,335.009,0.0
54094.0,STARLINK-5219,PAYLOAD,2022-10-30 22:00:01,15.76747703,3.53e-05,53.2173,96.8818,288.9804,8.5444,-0.0082824,-0.01203174,0.0,0 STARLINK-5219,1 54094U 22136AV  22303.91668981 -.01203174  00000-0 -82824-2 0  9990,2 54094  53.2173  96.8818 0000353 288.9804   8.5444 15.76747703  1301,6717.799,91.327,339.902,339.427,0.0
54094.0,STARLINK-5219,PAYLOAD,2022-10-31 14:00:01,15.75015961,0.0001176,53.2174,93.5683,59.9057,61.8033,-0.0090137,-0.01211821,0.0,0 STARLINK-5219,1 54094U 22136AV  22304.58334491 -.01211821  00000-0 -90137-2 0  9994,2 54094  53.2174  93.5683 0001176  59.9057  61.8033 15.75015961  1305,6722.723000000001,91.428,345.37800000000016,343.797,0.0
54094.0,STARLINK-5219,PAYLOAD,2022-10-31 22:00:01,15.74024189,0.0001264999999999,53.2172,91.9167,61.2886,151.0648,-0.0064873,-0.00853596,0.0,0 STARLINK-5219,1 54094U 22136AV  22304.91668981 -.00853596  00000-0 -64873-2 0  9993,2 54094  53.2172  91.9167 0001265  61.2886 151.0648 15.74024189  2279,6725.545999999999,91.485,348.26199999999994,346.561,0.0
54094.0,STARLINK-5219,PAYLOAD,2022-11-01 06:00:00,15.73268996,0.0001441999999999,53.2176,90.264,63.9028,237.9415,-0.00075622,-0.0010574,0.0,0 STARLINK-5219,1 54094U 22136AV  22305.25001157 -.00105740  00000-0 -75622-3 0  9993,2 54094  53.2176  90.2640 0001442  63.9028 237.9415 15.73268996  2322,6727.698,91.529,350.534,348.593,0.0
54094.0,STARLINK-5219,PAYLOAD,2022-11-01 14:00:01,15.7320891,8.3e-05,53.2169,88.6205,30.6102,0.0629,0.00029334,0.00040764,0.0,0 STARLINK-5219,1 54094U 22136AV  22305.58334491  .00040764  00000-0  29334-3 0  9990,2 54094  53.2169  88.6205 0000830  30.6102   0.0629 15.73208910  2388,6727.87,91.533,350.293,349.176,0.0
54094.0,STARLINK-5219,PAYLOAD,2022-11-01 22:00:00,15.73263479,0.0001087,53.2163,86.9717,27.4285,92.1955,0.00023884,0.00033123,0.0,0 STARLINK-5219,1 54094U 22136AV  22305.91667824  .00033123  00000-0  23884-3 0  9991,2 54094  53.2163  86.9717 0001087  27.4285  92.1955 15.73263479  1308,6727.714,91.529,350.311,348.848,0.0
54094.0,STARLINK-5219,PAYLOAD,2022-11-02 14:00:01,15.73258414,0.000137,53.2173,83.671,46.5594,251.0828,-0.00042679,-0.0006024,0.0,0 STARLINK-5219,1 54094U 22136AV  22306.58334491 -.00060240  00000-0 -42679-3 0  9991,2 54094  53.2173  83.6710 0001370  46.5594 251.0828 15.73258414  2530,6727.729,91.53,350.515,348.672,0.0
54094.0,STARLINK-5219,PAYLOAD,2022-11-02 22:00:00,15.73189689,0.0001528,53.2165,82.0226,38.4933,348.0957,0.00025972,0.0003597,0.0,0 STARLINK-5219,1 54094U 22136AV  22306.91667824  .00035970  00000-0  25972-3 0  9994,2 54094  53.2165  82.0226 0001528  38.4933 348.0957 15.73189689  1309,6727.925,91.534,350.8180000000001,348.76199999999994,0.0
54094.0,STARLINK-5219,PAYLOAD,2022-11-03 14:00:01,15.73257791,0.0001613,53.2164,78.7231,40.5334,163.9465,-0.00027466,-0.00039085,0.0,0 STARLINK-5219,1 54094U 22136AV  22307.58334491 -.00039085  00000-0 -27466-3 0  9992,2 54094  53.2164  78.7231 0001613  40.5334 163.9465 15.73257791  2691,6727.73,91.53,350.681,348.51,0.0
54094.0,STARLINK-5219,PAYLOAD,2022-11-03 22:00:00,15.73272082,0.0001682,53.216,77.0737,32.7721,260.6879,-1.3559e-05,-2.53e-05,0.0,0 STARLINK-5219,1 54094U 22136AV  22307.91667824 -.00002530  00000-0 -13559-4 0  9992,2 54094  53.2160  77.0737 0001682  32.7721 260.6879 15.73272082  2749,6727.69,91.529,350.686,348.423,0.0
54094.0,STARLINK-5219,PAYLOAD,2022-11-04 14:00:01,15.73249866,0.0001725,53.2162,73.7741,31.7386,79.7314,-0.00024797,-0.00035352,0.0,0 STARLINK-5219,1 54094U 22136AV  22308.58334491 -.00035352  00000-0 -24797-3 0  9990,2 54094  53.2162  73.7741 0001725  31.7386  79.7314 15.73249866  2852,6727.753000000002,91.53,350.779,348.457,0.0
54094.0,STARLINK-5219,PAYLOAD,2022-11-04 22:00:01,15.73221122,0.0001854,53.2165,72.1246,31.5636,168.8605,-0.00058869,-0.00082514,0.0,0 STARLINK-5219,1 54094U 22136AV  22308.91668981 -.00082514  00000-0 -58869-3 0  9990,2 54094  53.2165  72.1246 0001854  31.5636 168.8605 15.73221122  2901,6727.835,91.532,350.94699999999995,348.45300000000015,0.0
54094.0,STARLINK-5219,PAYLOAD,2022-11-05 14:00:01,15.73089747,0.0002039,53.2165,68.8258,34.824,343.3454,0.0002548,0.00035122,0.0,0 STARLINK-5219,1 54094U 22136AV  22309.58335648  .00035122  00000-0  25480-3 0  9999,2 54094  53.2165  68.8258 0002039  34.8240 343.3454 15.73089747  1309,6728.21,91.54,351.446,348.70300000000015,0.0
54094.0,STARLINK-5219,PAYLOAD,2022-11-05 22:00:01,15.73139237,0.0002131,53.2162,67.1765,33.1017,73.8733,0.00049844,0.00069736,0.0,0 STARLINK-5219,1 54094U 22136AV  22309.91668981  .00069736  00000-0  49844-3 0  9993,2 54094  53.2162  67.1765 0002131  33.1017  73.8733 15.73139237  3068,6728.068,91.537,351.367,348.5,0.0
54094.0,STARLINK-5219,PAYLOAD,2022-11-06 14:00:01,15.732495000000002,0.0002123,53.2167,63.8779,30.6825,254.0364,-0.00032592,-0.00046213,0.0,0 STARLINK-5219,1 54094U 22136AV  22310.58334491 -.00046213  00000-0 -32592-3 0  9993,2 54094  53.2167  63.8779 0002123  30.6825 254.0364 15.73249500  1304,6727.754,91.53,351.047,348.191,0.0
